start=new Date('2022-05-01T00:00:00.000Z').valueOf();
sats=[{"TLE_LINE1":"1 45748U 20038U   22120.59796577 -.00001269  00000-0 -66319-4 0  9992","ELEMENT_SET_NO":"999","PERIOD":"95.592","GP_ID":"202388787","RA_OF_ASC_NODE":"82.2695","NORAD_CAT_ID":"45748","APOAPSIS":"548.350","OBJECT_ID":"2020-038U","PERIAPSIS":"546.051","DECAY_DATE":null,"TIME_SYSTEM":"UTC","MEAN_MOTION":"15.06404147","MEAN_MOTION_DOT":"-0.00001269","SEMIMAJOR_AXIS":"6925.336","TLE_LINE2":"2 45748  53.0542  82.2695 0001660  48.4697 311.6434 15.06404147103808","BSTAR":"-0.00006631900000","RCS_SIZE":"LARGE","FILE":"3423346","LAUNCH_DATE":"2020-06-13","MEAN_MOTION_DDOT":"0.0000000000000","INCLINATION":"53.0542","CENTER_NAME":"EARTH","EPHEMERIS_TYPE":"0","OBJECT_NAME":"STARLINK-1507","ECCENTRICITY":"0.00016600","SITE":"AFETR","REF_FRAME":"TEME","REV_AT_EPOCH":"10380","EPOCH":"2022-04-30T14:21:04.242528","OBJECT_TYPE":"PAYLOAD","MEAN_ELEMENT_THEORY":"SGP4","MEAN_ANOMALY":"311.6434","COUNTRY_CODE":"US","CLASSIFICATION_TYPE":"U","ARG_OF_PERICENTER":"48.4697"},{"FILE":"3422880","LAUNCH_DATE":"2020-06-13","MEAN_MOTION_DDOT":"0.0000000000000","EPHEMERIS_TYPE":"0","CENTER_NAME":"EARTH","INCLINATION":"53.0555","ECCENTRICITY":"0.00017420","OBJECT_NAME":"STARLINK-1391","SITE":"AFETR","REF_FRAME":"TEME","REV_AT_EPOCH":"10409","EPOCH":"2022-04-30T13:26:41.901216","COUNTRY_CODE":"US","OBJECT_TYPE":"PAYLOAD","MEAN_ELEMENT_THEORY":"SGP4","MEAN_ANOMALY":"301.9126","CLASSIFICATION_TYPE":"U","ARG_OF_PERICENTER":"58.2032","TLE_LINE1":"1 45750U 20038W   22120.56020719 -.00000597  00000-0 -21175-4 0  9994","ELEMENT_SET_NO":"999","PERIOD":"95.592","RA_OF_ASC_NODE":"62.4465","GP_ID":"202351923","NORAD_CAT_ID":"45750","APOAPSIS":"548.431","OBJECT_ID":"2020-038W","PERIAPSIS":"546.018","MEAN_MOTION":"15.06396501","TIME_SYSTEM":"UTC","DECAY_DATE":null,"MEAN_MOTION_DOT":"-0.00000597","SEMIMAJOR_AXIS":"6925.359","RCS_SIZE":"LARGE","TLE_LINE2":"2 45750  53.0555  62.4465 0001742  58.2032 301.9126 15.06396501104099","BSTAR":"-0.00002117500000"},{"NORAD_CAT_ID":"45751","APOAPSIS":"548.489","OBJECT_ID":"2020-038X","TLE_LINE1":"1 45751U 20038X   22120.55652692 -.00000886  00000-0 -40609-4 0  9999","PERIOD":"95.592","ELEMENT_SET_NO":"999","GP_ID":"202361302","RA_OF_ASC_NODE":"62.4666","TLE_LINE2":"2 45751  53.0572  62.4666 0001837  55.6155 304.5008 15.06398796105204","BSTAR":"-0.00004060900000","RCS_SIZE":"LARGE","PERIAPSIS":"545.945","DECAY_DATE":null,"TIME_SYSTEM":"UTC","MEAN_MOTION":"15.06398796","SEMIMAJOR_AXIS":"6925.352","MEAN_MOTION_DOT":"-0.00000886","ECCENTRICITY":"0.00018370","OBJECT_NAME":"STARLINK-1464","SITE":"AFETR","REF_FRAME":"TEME","FILE":"3423012","LAUNCH_DATE":"2020-06-13","MEAN_MOTION_DDOT":"0.0000000000000","INCLINATION":"53.0572","CENTER_NAME":"EARTH","EPHEMERIS_TYPE":"0","OBJECT_TYPE":"PAYLOAD","MEAN_ANOMALY":"304.5008","MEAN_ELEMENT_THEORY":"SGP4","COUNTRY_CODE":"US","ARG_OF_PERICENTER":"55.6155","CLASSIFICATION_TYPE":"U","REV_AT_EPOCH":"10520","EPOCH":"2022-04-30T13:21:23.925888"},{"RA_OF_ASC_NODE":"133.2490","GP_ID":"202389539","ELEMENT_SET_NO":"999","PERIOD":"91.332","TLE_LINE1":"1 45752U 20038Y   22120.76056569  .00008282  00000-0  54694-4 0  9999","OBJECT_ID":"2020-038Y","APOAPSIS":"344.424","NORAD_CAT_ID":"45752","MEAN_MOTION_DOT":"0.00008282","SEMIMAJOR_AXIS":"6718.053","MEAN_MOTION":"15.76658470","DECAY_DATE":null,"TIME_SYSTEM":"UTC","PERIAPSIS":"335.411","RCS_SIZE":"LARGE","BSTAR":"0.00005469400000","TLE_LINE2":"2 45752  52.9970 133.2490 0006708 287.6370  72.3916 15.76658470108111","CENTER_NAME":"EARTH","EPHEMERIS_TYPE":"0","INCLINATION":"52.9970","MEAN_MOTION_DDOT":"0.0000000000000","FILE":"3423346","LAUNCH_DATE":"2020-06-13","REF_FRAME":"TEME","SITE":"AFETR","OBJECT_NAME":"STARLINK-1469","ECCENTRICITY":"0.00067080","EPOCH":"2022-04-30T18:15:12.875616","REV_AT_EPOCH":"10811","CLASSIFICATION_TYPE":"U","ARG_OF_PERICENTER":"287.6370","COUNTRY_CODE":"US","OBJECT_TYPE":"PAYLOAD","MEAN_ELEMENT_THEORY":"SGP4","MEAN_ANOMALY":"72.3916"},{"ECCENTRICITY":"0.00018530","OBJECT_NAME":"STARLINK-1476","SITE":"AFETR","REF_FRAME":"TEME","FILE":"3422880","LAUNCH_DATE":"2020-06-13","MEAN_MOTION_DDOT":"0.0000000000000","INCLINATION":"53.0565","EPHEMERIS_TYPE":"0","CENTER_NAME":"EARTH","MEAN_ELEMENT_THEORY":"SGP4","OBJECT_TYPE":"PAYLOAD","MEAN_ANOMALY":"307.8267","COUNTRY_CODE":"US","CLASSIFICATION_TYPE":"U","ARG_OF_PERICENTER":"52.2889","REV_AT_EPOCH":"10409","EPOCH":"2022-04-30T13:37:19.507296","NORAD_CAT_ID":"45753","APOAPSIS":"548.516","OBJECT_ID":"2020-038Z","TLE_LINE1":"1 45753U 20038Z   22120.56758689 -.00001029  00000-0 -50162-4 0  9990","PERIOD":"95.593","ELEMENT_SET_NO":"999","GP_ID":"202353170","RA_OF_ASC_NODE":"62.4257","TLE_LINE2":"2 45753  53.0565  62.4257 0001853  52.2889 307.8267 15.06393682104097","BSTAR":"-0.00005016200000","RCS_SIZE":"LARGE","PERIAPSIS":"545.950","DECAY_DATE":null,"TIME_SYSTEM":"UTC","MEAN_MOTION":"15.06393682","SEMIMAJOR_AXIS":"6925.368","MEAN_MOTION_DOT":"-0.00001029"},{"REV_AT_EPOCH":"10409","EPOCH":"2022-04-30T13:42:37.947456","MEAN_ANOMALY":"297.0262","OBJECT_TYPE":"PAYLOAD","MEAN_ELEMENT_THEORY":"SGP4","COUNTRY_CODE":"US","CLASSIFICATION_TYPE":"U","ARG_OF_PERICENTER":"63.0904","LAUNCH_DATE":"2020-06-13","FILE":"3422880","MEAN_MOTION_DDOT":"0.0000000000000","INCLINATION":"53.0558","EPHEMERIS_TYPE":"0","CENTER_NAME":"EARTH","OBJECT_NAME":"STARLINK-1477","ECCENTRICITY":"0.00017370","SITE":"AFETR","REF_FRAME":"TEME","PERIAPSIS":"546.006","TIME_SYSTEM":"UTC","DECAY_DATE":null,"MEAN_MOTION":"15.06401355","MEAN_MOTION_DOT":"-0.00001864","SEMIMAJOR_AXIS":"6925.344","TLE_LINE2":"2 45754  53.0558  62.3928 0001737  63.0904 297.0262 15.06401355104095","BSTAR":"-0.00010623000000","RCS_SIZE":"LARGE","TLE_LINE1":"1 45754U 20038AA  22120.57127254 -.00001864  00000-0 -10623-3 0  9994","ELEMENT_SET_NO":"999","PERIOD":"95.592","GP_ID":"202352423","RA_OF_ASC_NODE":"62.3928","NORAD_CAT_ID":"45754","APOAPSIS":"548.412","OBJECT_ID":"2020-038AA"},{"EPHEMERIS_TYPE":"0","CENTER_NAME":"EARTH","INCLINATION":"53.0550","FILE":"3422880","LAUNCH_DATE":"2020-06-13","MEAN_MOTION_DDOT":"0.0000000000000","SITE":"AFETR","REF_FRAME":"TEME","ECCENTRICITY":"0.00015610","OBJECT_NAME":"STARLINK-1478","REV_AT_EPOCH":"10403","EPOCH":"2022-04-30T06:11:28.809312","ARG_OF_PERICENTER":"56.1804","CLASSIFICATION_TYPE":"U","COUNTRY_CODE":"US","MEAN_ANOMALY":"303.9334","OBJECT_TYPE":"PAYLOAD","MEAN_ELEMENT_THEORY":"SGP4","ELEMENT_SET_NO":"999","PERIOD":"95.593","RA_OF_ASC_NODE":"63.8124","GP_ID":"202352673","TLE_LINE1":"1 45755U 20038AB  22120.25797233 -.00003369  00000-0 -20750-3 0  9994","OBJECT_ID":"2020-038AB","NORAD_CAT_ID":"45755","APOAPSIS":"548.348","SEMIMAJOR_AXIS":"6925.402","MEAN_MOTION_DOT":"-0.00003369","PERIAPSIS":"546.186","MEAN_MOTION":"15.06382676","DECAY_DATE":null,"TIME_SYSTEM":"UTC","RCS_SIZE":"LARGE","BSTAR":"-0.00020750000000","TLE_LINE2":"2 45755  53.0550  63.8124 0001561  56.1804 303.9334 15.06382676104034"},{"ECCENTRICITY":"0.00018170","OBJECT_NAME":"STARLINK-1484","SITE":"AFETR","REF_FRAME":"TEME","FILE":"3422880","LAUNCH_DATE":"2020-06-13","MEAN_MOTION_DDOT":"0.0000000000000","CENTER_NAME":"EARTH","EPHEMERIS_TYPE":"0","INCLINATION":"53.0552","COUNTRY_CODE":"US","OBJECT_TYPE":"PAYLOAD","MEAN_ANOMALY":"303.6965","MEAN_ELEMENT_THEORY":"SGP4","ARG_OF_PERICENTER":"56.4197","CLASSIFICATION_TYPE":"U","REV_AT_EPOCH":"10403","EPOCH":"2022-04-30T06:06:09.557856","NORAD_CAT_ID":"45756","APOAPSIS":"548.480","OBJECT_ID":"2020-038AC","TLE_LINE1":"1 45756U 20038AC  22120.25427729  .00001045  00000-0  89029-4 0  9997","PERIOD":"95.592","ELEMENT_SET_NO":"999","RA_OF_ASC_NODE":"63.8249","GP_ID":"202352925","RCS_SIZE":"LARGE","BSTAR":"0.00008902900000","TLE_LINE2":"2 45756  53.0552  63.8249 0001817  56.4197 303.6965 15.06397369104039","PERIAPSIS":"545.963","MEAN_MOTION":"15.06397369","DECAY_DATE":null,"TIME_SYSTEM":"UTC","SEMIMAJOR_AXIS":"6925.357","MEAN_MOTION_DOT":"0.00001045"},{"OBJECT_NAME":"STARLINK-1486","ECCENTRICITY":"0.00016870","SITE":"AFETR","REF_FRAME":"TEME","LAUNCH_DATE":"2020-06-13","FILE":"3423017","MEAN_MOTION_DDOT":"0.0000000000000","EPHEMERIS_TYPE":"0","CENTER_NAME":"EARTH","INCLINATION":"53.0550","COUNTRY_CODE":"US","OBJECT_TYPE":"PAYLOAD","MEAN_ANOMALY":"314.1147","MEAN_ELEMENT_THEORY":"SGP4","ARG_OF_PERICENTER":"45.9981","CLASSIFICATION_TYPE":"U","REV_AT_EPOCH":"10524","EPOCH":"2022-04-30T20:52:33.547872","NORAD_CAT_ID":"45757","APOAPSIS":"548.405","OBJECT_ID":"2020-038AD","TLE_LINE1":"1 45757U 20038AD  22120.86983273 -.00000360  00000-0 -52670-5 0  9990","ELEMENT_SET_NO":"999","PERIOD":"95.593","RA_OF_ASC_NODE":"61.0577","GP_ID":"202361841","RCS_SIZE":"LARGE","TLE_LINE2":"2 45757  53.0550  61.0577 0001687  45.9981 314.1147 15.06392370105241","BSTAR":"-0.00000526700000","PERIAPSIS":"546.069","MEAN_MOTION":"15.06392370","DECAY_DATE":null,"TIME_SYSTEM":"UTC","SEMIMAJOR_AXIS":"6925.372","MEAN_MOTION_DOT":"-0.00000360"},{"MEAN_MOTION_DOT":"-0.00001404","SEMIMAJOR_AXIS":"6925.368","PERIAPSIS":"546.055","TIME_SYSTEM":"UTC","DECAY_DATE":null,"MEAN_MOTION":"15.06393553","BSTAR":"-0.00007540600000","TLE_LINE2":"2 45758  53.0548  61.3834 0001702  57.9385 302.1769 15.06393553104113","RCS_SIZE":"LARGE","ELEMENT_SET_NO":"999","PERIOD":"95.593","GP_ID":"202388538","RA_OF_ASC_NODE":"61.3834","TLE_LINE1":"1 45758U 20038AE  22120.79610950 -.00001404  00000-0 -75406-4 0  9993","OBJECT_ID":"2020-038AE","NORAD_CAT_ID":"45758","APOAPSIS":"548.412","REV_AT_EPOCH":"10411","EPOCH":"2022-04-30T19:06:23.860800","ARG_OF_PERICENTER":"57.9385","CLASSIFICATION_TYPE":"U","OBJECT_TYPE":"PAYLOAD","MEAN_ELEMENT_THEORY":"SGP4","MEAN_ANOMALY":"302.1769","COUNTRY_CODE":"US","INCLINATION":"53.0548","CENTER_NAME":"EARTH","EPHEMERIS_TYPE":"0","LAUNCH_DATE":"2020-06-13","FILE":"3423346","MEAN_MOTION_DDOT":"0.0000000000000","SITE":"AFETR","REF_FRAME":"TEME","OBJECT_NAME":"STARLINK-1487","ECCENTRICITY":"0.00017020"}];
